$$SOE
2461295.500000000, A.D. 2026-Sep-12 00:00:00.0000, -3.525766220515779E+08, -3.100285174570133E+07, -9.608913358156997E+07,
2461302.500000000, A.D. 2026-Sep-19 00:00:00.0000, -3.546408899731272E+08, -4.137765727917688E+07, -9.987807763530736E+07,
2461309.500000000, A.D. 2026-Sep-26 00:00:00.0000, -3.563673264530047E+08, -5.171305244986282E+07, -1.035718795193160E+08,
2461316.500000000, A.D. 2026-Oct-03 00:00:00.0000, -3.577648975157064E+08, -6.200073242956327E+07, -1.071701030430213E+08,
2461323.500000000, A.D. 2026-Oct-10 00:00:00.0000, -3.588423718217404E+08, -7.223294796518353E+07, -1.106724396789255E+08,
2461330.500000000, A.D. 2026-Oct-17 00:00:00.0000, -3.596083154651617E+08, -8.240246425481375E+07, -1.140786942758447E+08,
2461337.500000000, A.D. 2026-Oct-24 00:00:00.0000, -3.600710889224846E+08, -9.250252282477339E+07, -1.173887722231082E+08,
2461344.500000000, A.D. 2026-Oct-31 00:00:00.0000, -3.602388457008564E+08, -1.025268063084886E+08, -1.206026679410877E+08,
2461351.500000000, A.D. 2026-Nov-07 00:00:00.0000, -3.601195320434443E+08, -1.124694058857448E+08, -1.237204545957713E+08,
2461358.500000000, A.D. 2026-Nov-14 00:00:00.0000, -3.597208872315713E+08, -1.223247903291355E+08, -1.267422748669515E+08,
2461365.500000000, A.D. 2026-Nov-21 00:00:00.0000, -3.590504460732026E+08, -1.320877758146051E+08, -1.296683324421869E+08,
2461372.500000000, A.D. 2026-Nov-28 00:00:00.0000, -3.581155443875343E+08, -1.417534993497438E+08, -1.324988842956728E+08,
2461379.500000000, A.D. 2026-Dec-05 00:00:00.0000, -3.569233237079540E+08, -1.513173963279082E+08, -1.352342340525433E+08,
2461386.500000000, A.D. 2026-Dec-12 00:00:00.0000, -3.554807349033642E+08, -1.607751789544500E+08, -1.378747261213108E+08,
2461393.500000000, A.D. 2026-Dec-19 00:00:00.0000, -3.537945424887557E+08, -1.701228154043572E+08, -1.404207403489014E+08,
2461400.500000000, A.D. 2026-Dec-26 00:00:00.0000, -3.518713296693599E+08, -1.793565104551236E+08, -1.428726871920572E+08,
2461407.500000000, A.D. 2027-Jan-02 00:00:00.0000, -3.497175037616494E+08, -1.884726876701477E+08, -1.452310033895746E+08,
2461414.500000000, A.D. 2027-Jan-09 00:00:00.0000, -3.473393018076413E+08, -1.974679730040774E+08, -1.474961480940791E+08,
2461421.500000000, A.D. 2027-Jan-16 00:00:00.0000, -3.447427962921447E+08, -2.063391797199738E+08, -1.496685994203491E+08,
2461428.500000000, A.D. 2027-Jan-23 00:00:00.0000, -3.419339008717247E+08, -2.150832945637909E+08, -1.517488513766148E+08,
2461435.500000000, A.D. 2027-Jan-30 00:00:00.0000, -3.389183758908383E+08, -2.236974651565963E+08, -1.537374111630753E+08,
2461442.500000000, A.D. 2027-Feb-06 00:00:00.0000, -3.357018332306134E+08, -2.321789881832412E+08, -1.556347968154283E+08,
2461449.500000000, A.D. 2027-Feb-13 00:00:00.0000, -3.322897409260621E+08, -2.405252970821616E+08, -1.574415350208065E+08,
2461456.500000000, A.D. 2027-Feb-20 00:00:00.0000, -3.286874298948012E+08, -2.487339499577928E+08, -1.591581589257092E+08,
2461463.500000000, A.D. 2027-Feb-27 00:00:00.0000, -3.249001013645647E+08, -2.568026208667114E+08, -1.607852063018831E+08,
2461470.500000000, A.D. 2027-Mar-06 00:00:00.0000, -3.209328319691003E+08, -2.647290924980247E+08, -1.623232181687586E+08,
2461477.500000000, A.D. 2027-Mar-13 00:00:00.0000, -3.167905781033226E+08, -2.725112481456524E+08, -1.637727375393936E+08,
2461484.500000000, A.D. 2027-Mar-20 00:00:00.0000, -3.124781806601282E+08, -2.801470637583897E+08, -1.651343082379107E+08,
2461491.500000000, A.D. 2027-Mar-27 00:00:00.0000, -3.080003699424680E+08, -2.876346005719479E+08, -1.664084738373872E+08,
2461498.500000000, A.D. 2027-Apr-03 00:00:00.0000, -3.033617705458004E+08, -2.949719983293188E+08, -1.675957767280008E+08,
2461505.500000000, A.D. 2027-Apr-10 00:00:00.0000, -2.985669061494807E+08, -3.021574690277929E+08, -1.686967573074839E+08,
2461512.500000000, A.D. 2027-Apr-17 00:00:00.0000, -2.936202041958193E+08, -3.091892911709576E+08, -1.697119532860186E+08,
2461519.500000000, A.D. 2027-Apr-24 00:00:00.0000, -2.885260003789930E+08, -3.160658045545772E+08, -1.706418991074823E+08,
2461526.500000000, A.D. 2027-May-01 00:00:00.0000, -2.832885426460919E+08, -3.227854055280050E+08, -1.714871255026206E+08,
2461533.500000000, A.D. 2027-May-08 00:00:00.0000, -2.779119944053168E+08, -3.293465419546593E+08, -1.722481591323404E+08,
2461540.500000000, A.D. 2027-May-15 00:00:00.0000, -2.724004384407652E+08, -3.357477068922185E+08, -1.729255220977083E+08,
2461547.500000000, A.D. 2027-May-22 00:00:00.0000, -2.667578831001637E+08, -3.419874335608026E+08, -1.735197313777795E+08,
2461554.500000000, A.D. 2027-May-29 00:00:00.0000, -2.609882674031634E+08, -3.480642930470765E+08, -1.740312986175609E+08,
2461561.500000000, A.D. 2027-Jun-05 00:00:00.0000, -2.550954641903490E+08, -3.539768915937907E+08, -1.744607300868850E+08,
2461568.500000000, A.D. 2027-Jun-12 00:00:00.0000, -2.490832833256693E+08, -3.597238670248791E+08, -1.748085265863338E+08,
2461575.500000000, A.D. 2027-Jun-19 00:00:00.0000, -2.429554752882703E+08, -3.653038852242078E+08, -1.750751833419687E+08,
2461582.500000000, A.D. 2027-Jun-26 00:00:00.0000, -2.367157348792473E+08, -3.707156369139082E+08, -1.752611899320757E+08,
2461589.500000000, A.D. 2027-Jul-03 00:00:00.0000, -2.303677049163499E+08, -3.759578347101167E+08, -1.753670302542360E+08,
2461596.500000000, A.D. 2027-Jul-10 00:00:00.0000, -2.239149798853755E+08, -3.810292104347588E+08, -1.753931825327985E+08,
2461603.500000000, A.D. 2027-Jul-17 00:00:00.0000, -2.173611095178104E+08, -3.859285127105089E+08, -1.753401193709389E+08,
2461610.500000000, A.D. 2027-Jul-24 00:00:00.0000, -2.107096021442794E+08, -3.906545048907850E+08, -1.752083078645703E+08,
2461617.500000000, A.D. 2027-Jul-31 00:00:00.0000, -2.039639274183137E+08, -3.952059630791088E+08, -1.749982097945109E+08,
2461624.500000000, A.D. 2027-Aug-07 00:00:00.0000, -1.971275186170136E+08, -3.995816730765936E+08, -1.747102817824276E+08,
2461631.500000000, A.D. 2027-Aug-14 00:00:00.0000, -1.902037768251629E+08, -4.037804265018204E+08, -1.743449752182840E+08,
2461638.500000000, A.D. 2027-Aug-21 00:00:00.0000, -1.831960763895309E+08, -4.078010194394028E+08, -1.739027362895725E+08,
2461645.500000000, A.D. 2027-Aug-28 00:00:00.0000, -1.761077682178588E+08, -4.116422524078170E+08, -1.733840063284340E+08,
2461652.500000000, A.D. 2027-Sep-04 00:00:00.0000, -1.689421821100459E+08, -4.153029291384054E+08, -1.727892221638835E+08,
2461659.500000000, A.D. 2027-Sep-11 00:00:00.0000, -1.617026295231269E+08, -4.187818548209792E+08, -1.721188164050305E+08,
2461666.500000000, A.D. 2027-Sep-18 00:00:00.0000, -1.543924066428775E+08, -4.220778344605983E+08, -1.713732177205071E+08,
2461673.500000000, A.D. 2027-Sep-25 00:00:00.0000, -1.470147975390740E+08, -4.251896714180701E+08, -1.705528511415624E+08,
2461680.500000000, A.D. 2027-Oct-02 00:00:00.0000, -1.395730773352832E+08, -4.281161661021666E+08, -1.696581383939658E+08,
2461687.500000000, A.D. 2027-Oct-09 00:00:00.0000, -1.320705153770001E+08, -4.308561148142461E+08, -1.686894982620255E+08,
2461694.500000000, A.D. 2027-Oct-16 00:00:00.0000, -1.245103783417409E+08, -4.334083087966405E+08, -1.676473469959133E+08,
2461701.500000000, A.D. 2027-Oct-23 00:00:00.0000, -1.168959330382198E+08, -4.357715334870015E+08, -1.665320987872069E+08,
2461708.500000000, A.D. 2027-Oct-30 00:00:00.0000, -1.092304485266868E+08, -4.379445673648052E+08, -1.653441662973797E+08,
2461715.500000000, A.D. 2027-Nov-06 00:00:00.0000, -1.015171987301085E+08, -4.399261792585412E+08, -1.640839610404127E+08,
2461722.500000000, A.D. 2027-Nov-13 00:00:00.0000, -9.375946752706100E+07, -4.417151261870093E+08, -1.627518936074992E+08,
2461729.500000000, A.D. 2027-Nov-20 00:00:00.0000, -8.596055342967321E+07, -4.433101539196399E+08, -1.613483741802840E+08,
2461736.500000000, A.D. 2027-Nov-27 00:00:00.0000, -7.812377223570320E+07, -4.447099972924361E+08, -1.598738132417051E+08,
2461743.500000000, A.D. 2027-Dec-04 00:00:00.0000, -7.025245968653697E+07, -4.459133793668778E+08, -1.583286222271632E+08,
2461750.500000000, A.D. 2027-Dec-11 00:00:00.0000, -6.234997469053431E+07, -4.469190103965595E+08, -1.567132141467732E+08,
2461757.500000000, A.D. 2027-Dec-18 00:00:00.0000, -5.441970284570111E+07, -4.477255869412754E+08, -1.550280042337168E+08,
2461764.500000000, A.D. 2027-Dec-25 00:00:00.0000, -4.646506011851031E+07, -4.483317911314246E+08, -1.532734106347652E+08,
2461771.500000000, A.D. 2028-Jan-01 00:00:00.0000, -3.848949664604778E+07, -4.487362900693766E+08, -1.514498551477578E+08,
$$EOE